0 FENGYUN 1C DEB
1 32182U 99025CUC 13289.60433181  .00002228  00000-0  12632-2 0  2072
2 32182 098.2283 065.6753 0143234 296.5702 061.2854 14.05904983334290
